NORAD_CAT_ID,OBJECT_NAME,OBJECT_TYPE,EPOCH,MEAN_MOTION,ECCENTRICITY,INCLINATION,RA_OF_ASC_NODE,ARG_OF_PERICENTER,MEAN_ANOMALY,BSTAR,MEAN_MOTION_DOT,MEAN_MOTION_DDOT,TLE_LINE0,TLE_LINE1,TLE_LINE2,SEMIMAJOR_AXIS,PERIOD,APOGEE,PERIGEE,DECAYED
53165.0,STARLINK-4090,PAYLOAD,2023-05-05 18:39:22,15.08841049,0.000107,53.2153,147.9744,88.7939,271.3176,0.00010065,1.314e-05,0.0,0 STARLINK-4090,1 53165U 22083AK  23125.77734185  .00001314  00000-0  10065-3 0  9994,2 53165  53.2153 147.9744 0001070  88.7939 271.3176 15.08841049 45151,6917.877,95.437,540.482,539.002,0.0
53165.0,STARLINK-4090,PAYLOAD,2023-05-06 07:22:27,15.08841972,0.0001084,53.2155,145.5953,89.7616,270.3501,8.157e-05,1.011e-05,0.0,0 STARLINK-4090,1 53165U 22083AK  23126.30726348  .00001011  00000-0  81570-4 0  9990,2 53165  53.2155 145.5953 0001084  89.7616 270.3501 15.08841972 44602,6917.874,95.437,540.489,538.989,0.0
53165.0,STARLINK-4090,PAYLOAD,2023-05-07 00:51:41,15.08845162,0.0001154,53.2156,142.3235,89.4809,270.6315,0.0001149,1.542e-05,0.0,0 STARLINK-4090,1 53165U 22083AK  23127.03590048  .00001542  00000-0  11490-3 0  9999,2 53165  53.2156 142.3235 0001154  89.4809 270.6315 15.08845162 45343,6917.865,95.437,540.528,538.931,0.0
53165.0,STARLINK-4090,PAYLOAD,2023-05-07 07:13:14,15.08845839,0.0001139,53.2157,141.1337,90.5623,269.55,0.0001068,1.413e-05,0.0,0 STARLINK-4090,1 53165U 22083AK  23127.30086004  .00001413  00000-0  10680-3 0  9998,2 53165  53.2157 141.1337 0001139  90.5623 269.5500 15.08845839 44752,6917.863,95.437,540.515,538.94,0.0
53165.0,STARLINK-4090,PAYLOAD,2023-05-07 18:20:56,15.08842762,0.0001127,53.2157,139.0524,89.4645,270.6476,8.8784e-05,1.126e-05,0.0,0 STARLINK-4090,1 53165U 22083AK  23127.76454191  .00001126  00000-0  88784-4 0  9996,2 53165  53.2157 139.0524 0001127  89.4645 270.6476 15.08842762 44829,6917.872,95.437,540.517,538.957,0.0
53165.0,STARLINK-4090,PAYLOAD,2023-05-08 03:53:15,15.08834446,0.0001144,53.2163,137.2689,88.6287,271.4836,3.93e-05,3.38e-06,0.0,0 STARLINK-4090,1 53165U 22083AK  23128.16198923  .00000338  00000-0  39300-4 0  9993,2 53165  53.2163 137.2689 0001144  88.6287 271.4836 15.08834446 45516,6917.897,95.438,540.554,538.971,0.0
53165.0,STARLINK-4090,PAYLOAD,2023-05-08 10:14:48,15.08837015,0.0001153,53.2167,136.0802,84.7998,275.3126,4.5646e-05,4.39e-06,0.0,0 STARLINK-4090,1 53165U 22083AK  23128.42694779  .00000439  00000-0  45646-4 0  9994,2 53165  53.2167 136.0802 0001153  84.7998 275.3126 15.08837015 44924,6917.89,95.438,540.552,538.957,0.0
53165.0,STARLINK-4090,PAYLOAD,2023-05-09 05:19:25,15.08841708,0.000117,53.217,132.5117,85.2622,274.8503,4.7154e-05,4.63e-06,0.0,0 STARLINK-4090,1 53165U 22083AK  23129.22182511  .00000463  00000-0  47154-4 0  9992,2 53165  53.2170 132.5117 0001170  85.2622 274.8503 15.08841708 45677,6917.875,95.437,540.55,538.931,0.0
53165.0,STARLINK-4090,PAYLOAD,2023-05-09 10:05:34,15.08843591,0.0001175,53.2173,131.6199,90.717,269.3957,6.5925e-05,7.62e-06,0.0,0 STARLINK-4090,1 53165U 22083AK  23129.42054290  .00000762  00000-0  65925-4 0  9994,2 53165  53.2173 131.6199 0001175  90.7170 269.3957 15.08843591 45072,6917.869,95.437,540.547,538.922,0.0
53165.0,STARLINK-4090,PAYLOAD,2023-05-10 09:56:22,15.08842731,0.000118,53.2174,127.1591,90.5081,269.6046,0.00013958,1.934e-05,0.0,0 STARLINK-4090,1 53165U 22083AK  23130.41414369  .00001934  00000-0  13958-3 0  9992,2 53165  53.2174 127.1591 0001180  90.5081 269.6046 15.08842731 45228,6917.872,95.437,540.553,538.921,0.0
53165.0,STARLINK-4090,PAYLOAD,2023-05-10 16:17:54,15.08844303,0.0001197,53.2176,125.9698,90.502,269.6109,0.00013227,1.818e-05,0.0,0 STARLINK-4090,1 53165U 22083AK  23130.67910276  .00001818  00000-0  13227-3 0  9998,2 53165  53.2176 125.9698 0001197  90.5020 269.6109 15.08844303 45266,6917.867,95.437,540.56,538.904,0.0
53165.0,STARLINK-4090,PAYLOAD,2023-05-11 06:36:23,15.08839924,0.0001236,53.2178,123.2939,91.7292,268.3841,4.3083e-05,3.98e-06,0.0,0 STARLINK-4090,1 53165U 22083AK  23131.27526924  .00000398  00000-0  43083-4 0  9994,2 53165  53.2178 123.2939 0001236  91.7292 268.3841 15.08839924 45986,6917.881,95.438,540.601,538.891,0.0
53165.0,STARLINK-4090,PAYLOAD,2023-05-11 16:08:42,15.08839452,0.0001241,53.2179,121.5099,91.3069,268.8066,3.349e-05,2.45e-06,0.0,0 STARLINK-4090,1 53165U 22083AK  23131.67270995  .00000245  00000-0  33490-4 0  9994,2 53165  53.2179 121.5099 0001241  91.3069 268.8066 15.08839452 45417,6917.882,95.438,540.606,538.889,0.0
53165.0,STARLINK-4090,PAYLOAD,2023-05-11 22:30:15,15.08835529,0.0001218,53.2176,120.3212,99.6816,260.4314,-3.0446e-06,-3.36e-06,0.0,0 STARLINK-4090,1 53165U 22083AK  23131.93767407 -.00000336  00000-0 -30446-5 0  9994,2 53165  53.2176 120.3212 0001218  99.6816 260.4314 15.08835529 46082,6917.894,95.438,540.602,538.916,0.0
53165.0,STARLINK-4090,PAYLOAD,2023-05-12 04:51:47,15.08835798,0.0001261,53.2179,119.1322,99.137,260.9765,-6.7974e-07,-2.99e-06,0.0,0 STARLINK-4090,1 53165U 22083AK  23132.20263454 -.00000299  00000-0 -67974-6 0  9993,2 53165  53.2179 119.1322 0001261  99.1370 260.9765 15.08835798 45498,6917.893,95.438,540.631,538.886,0.0
53165.0,STARLINK-4090,PAYLOAD,2023-05-12 15:59:29,15.088392,0.0001248,53.2178,117.0504,96.2501,263.8633,4.335e-05,4.02e-06,0.0,0 STARLINK-4090,1 53165U 22083AK  23132.66631181  .00000402  00000-0  43350-4 0  9993,2 53165  53.2178 117.0504 0001248  96.2501 263.8633 15.08839200 45561,6917.883,95.438,540.611,538.884,0.0
53165.0,STARLINK-4090,PAYLOAD,2023-05-13 04:42:33,15.08844827,0.0001213,53.2177,114.6709,95.4011,264.712,0.00011142,1.486e-05,0.0,0 STARLINK-4090,1 53165U 22083AK  23133.19622663  .00001486  00000-0  11142-3 0  9993,2 53165  53.2177 114.6709 0001213  95.4011 264.7120 15.08844827 46270,6917.866,95.437,540.57,538.891,0.0
53165.0,STARLINK-4090,PAYLOAD,2023-05-13 11:04:06,15.08848273,0.0001214,53.2175,113.4808,93.0753,267.0378,0.00012971,1.778e-05,0.0,0 STARLINK-4090,1 53165U 22083AK  23133.46118294  .00001778  00000-0  12971-3 0  9998,2 53165  53.2175 113.4808 0001214  93.0753 267.0378 15.08848273 45687,6917.855,95.437,540.56,538.88,0.0
53165.0,STARLINK-4090,PAYLOAD,2023-05-13 15:50:16,15.0882939,9.91e-05,53.2178,112.5892,89.1754,270.9352,-2.3529e-05,-6.62e-06,0.0,0 STARLINK-4090,1 53165U 22083AK  23133.65991871 -.00000662  00000-0 -23529-4 0  9994,2 53165  53.2178 112.5892 0000991  89.1754 270.9352 15.08829390 46349,6917.913,95.438,540.463,539.092,0.0
53165.0,STARLINK-4090,PAYLOAD,2023-05-14 06:08:45,15.08833985,0.000124,53.2174,109.9123,86.1608,273.9526,7.1531e-05,8.51e-06,0.0,0 STARLINK-4090,1 53165U 22083AK  23134.25607835  .00000851  00000-0  71531-4 0  9999,2 53165  53.2174 109.9123 0001240  86.1608 273.9526 15.08833985 45806,6917.899,95.438,540.622,538.906,0.0
53165.0,STARLINK-4090,PAYLOAD,2023-05-14 15:41:03,15.08840883,0.0001228,53.2177,108.1289,85.7958,274.3175,9.4023e-05,1.209e-05,0.0,0 STARLINK-4090,1 53165U 22083AK  23134.65351424  .00001209  00000-0  94023-4 0  9992,2 53165  53.2177 108.1289 0001228  85.7958 274.3175 15.08840883 46498,6917.878,95.437,540.592,538.893,0.0
53165.0,STARLINK-4090,PAYLOAD,2023-05-15 04:24:07,15.08853387,0.0001199,53.2176,105.7487,91.1327,268.9803,0.00010444,1.375e-05,0.0,0 STARLINK-4090,1 53165U 22083AK  23135.18342458  .00001375  00000-0  10444-3 0  9996,2 53165  53.2176 105.7487 0001199  91.1327 268.9803 15.08853387 46577,6917.839,95.437,540.534,538.875,0.0
53165.0,STARLINK-4090,PAYLOAD,2023-05-15 15:31:50,15.08847733,0.0001168,53.2159,103.6675,82.5074,277.605,0.00011608,1.56e-05,0.0,0 STARLINK-4090,1 53165U 22083AK  23135.64710818  .00001560  00000-0  11608-3 0  9995,2 53165  53.2159 103.6675 0001168  82.5074 277.6050 15.08847733 46640,6917.857,95.437,540.53,538.914,0.0
53165.0,STARLINK-4090,PAYLOAD,2023-05-16 04:14:55,15.08836739,0.0001366,53.2169,101.2885,86.9432,273.1716,5.1916e-05,5.38e-06,0.0,0 STARLINK-4090,1 53165U 22083AK  23136.17703606  .00000538  00000-0  51916-4 0  9992,2 53165  53.2169 101.2885 0001366  86.9432 273.1716 15.08836739 46727,6917.89,95.438,540.7,538.81,0.0
53165.0,STARLINK-4090,PAYLOAD,2023-05-16 07:25:42,15.08839276,0.0001391,53.2171,100.6925,91.3909,268.7242,8.5699e-05,1.076e-05,0.0,0 STARLINK-4090,1 53165U 22083AK  23136.30951460  .00001076  00000-0  85699-4 0  9993,2 53165  53.2171 100.6925 0001391  91.3909 268.7242 15.08839276 46111,6917.883,95.438,540.71,538.785,0.0
53165.0,STARLINK-4090,PAYLOAD,2023-05-17 04:05:42,15.08842164,0.0001302,53.2181,96.8264,94.074,266.0401,4.5557e-05,4.37e-06,0.0,0 STARLINK-4090,1 53165U 22083AK  23137.17063199  .00000437  00000-0  45557-4 0  9991,2 53165  53.2181  96.8264 0001302  94.0740 266.0401 15.08842164 46241,6917.874,95.437,540.639,538.838,0.0
53165.0,STARLINK-4090,PAYLOAD,2023-05-18 02:21:07,15.0883117,0.0001312,53.2185,92.6648,94.8923,265.2219,5.4329e-05,5.77e-06,0.0,0 STARLINK-4090,1 53165U 22083AK  23138.09800073  .00000577  00000-0  54329-4 0  9995,2 53165  53.2185  92.6648 0001312  94.8923 265.2219 15.08831170 47016,6917.907,95.438,540.68,538.865,0.0
53165.0,STARLINK-4090,PAYLOAD,2023-05-18 07:07:16,15.0883595,0.0001225,53.2178,91.7739,93.8447,266.2685,3.7023e-05,3.01e-06,0.0,0 STARLINK-4090,1 53165U 22083AK  23138.29671846  .00000301  00000-0  37023-4 0  9998,2 53165  53.2178  91.7739 0001225  93.8447 266.2685 15.08835950 46413,6917.893,95.438,540.605,538.91,0.0
53165.0,STARLINK-4090,PAYLOAD,2023-05-19 02:11:53,15.08844246,0.0001199,53.2179,88.2057,93.7146,266.3983,2.3106e-05,8e-07,0.0,0 STARLINK-4090,1 53165U 22083AK  23139.09159603  .00000080  00000-0  23106-4 0  9990,2 53165  53.2179  88.2057 0001199  93.7146 266.3983 15.08844246 47166,6917.867,95.437,540.562,538.903,0.0
53165.0,STARLINK-4090,PAYLOAD,2023-05-20 02:02:41,15.08837407,0.0001235,53.2183,83.7453,89.3396,270.7738,5.9038e-05,6.52e-06,0.0,0 STARLINK-4090,1 53165U 22083AK  23140.08520153  .00000652  00000-0  59038-4 0  9991,2 53165  53.2183  83.7453 0001235  89.3396 270.7738 15.08837407 47315,6917.888,95.438,540.608,538.899,0.0
